NORAD_CAT_ID,OBJECT_NAME,OBJECT_TYPE,EPOCH,MEAN_MOTION,ECCENTRICITY,INCLINATION,RA_OF_ASC_NODE,ARG_OF_PERICENTER,MEAN_ANOMALY,BSTAR,MEAN_MOTION_DOT,MEAN_MOTION_DDOT,TLE_LINE0,TLE_LINE1,TLE_LINE2,SEMIMAJOR_AXIS,PERIOD,APOGEE,PERIGEE,DECAYED
53780.0,STARLINK-4678,PAYLOAD,2022-12-20 20:34:33,15.08860154,0.0002359,53.2179,148.3358,47.0492,313.0697,-7.361e-05,-1.46e-05,0.0,0 STARLINK-4678,1 53780U 22111H   22354.85733315 -.00001460  00000-0 -73610-4 0  9995,2 53780  53.2179 148.3358 0002359  47.0492 313.0697 15.08860154 15529,6917.819,95.436,541.316,538.052,0.0
53780.0,STARLINK-4678,PAYLOAD,2022-12-21 12:28:25,15.08840939,0.0002407,53.2171,145.3612,50.1086,310.0117,4.0646e-05,3.59e-06,0.0,0 STARLINK-4678,1 53780U 22111H   22355.51973828  .00000359  00000-0  40646-4 0  9991,2 53780  53.2171 145.3612 0002407  50.1086 310.0117 15.08840939 15623,6917.878000000002,95.437,541.408,538.077,0.0
53780.0,STARLINK-4678,PAYLOAD,2022-12-22 02:46:54,15.08835362,0.0002333,53.216,142.6842,47.3889,312.73,-3.8855e-05,-9.07e-06,0.0,0 STARLINK-4678,1 53780U 22111H   22356.11590316 -.00000907  00000-0 -38855-4 0  9995,2 53780  53.2160 142.6842 0002333  47.3889 312.7300 15.08835362 15710,6917.895,95.438,541.374,538.146,0.0
53780.0,STARLINK-4678,PAYLOAD,2022-12-22 20:16:07,15.08848296,0.0002399,53.2157,139.4122,46.1874,313.9317,-7.9652e-06,-4.15e-06,0.0,0 STARLINK-4678,1 53780U 22111H   22356.84453236 -.00000415  00000-0 -79652-5 0  9999,2 53780  53.2157 139.4122 0002399  46.1874 313.9317 15.08848296 15827,6917.855,95.437,541.38,538.06,0.0
53780.0,STARLINK-4678,PAYLOAD,2022-12-23 02:37:39,15.08849959,0.0002546,53.2168,138.2222,45.9211,314.199,-2.2584e-05,-6.48e-06,0.0,0 STARLINK-4678,1 53780U 22111H   22357.10949024 -.00000648  00000-0 -22584-4 0  9993,2 53780  53.2168 138.2222 0002546  45.9211 314.1990 15.08849959 16674,6917.85,95.437,541.476,537.9540000000002,0.0
53780.0,STARLINK-4678,PAYLOAD,2022-12-23 18:31:31,15.08840884,0.0002478,53.2168,135.2494,49.1312,310.9894,-2.3791e-05,-6.67e-06,0.0,0 STARLINK-4678,1 53780U 22111H   22357.77189473 -.00000667  00000-0 -23791-4 0  9992,2 53780  53.2168 135.2494 0002478  49.1312 310.9894 15.08840884 16770,6917.878000000002,95.437,541.457,538.028,0.0
53780.0,STARLINK-4678,PAYLOAD,2022-12-23 21:42:17,15.08856856,0.0002438,53.2176,134.6538,46.6592,313.4603,-0.00015459,-2.749e-05,0.0,0 STARLINK-4678,1 53780U 22111H   22357.90436777 -.00002749  00000-0 -15459-3 0  9993,2 53780  53.2176 134.6538 0002438  46.6592 313.4603 15.08856856 15983,6917.829000000002,95.436,541.38,538.007,0.0
53780.0,STARLINK-4678,PAYLOAD,2022-12-24 02:28:26,15.088507,0.000237,53.217,133.7627,45.4086,314.7099,1.8355e-05,4e-08,0.0,0 STARLINK-4678,1 53780U 22111H   22358.10308477  .00000004  00000-0  18355-4 0  9990,2 53780  53.2170 133.7627 0002370  45.4086 314.7099 15.08850700 16825,6917.848000000001,95.437,541.352,538.073,0.0
53780.0,STARLINK-4678,PAYLOAD,2022-12-24 18:22:18,15.08844106,0.0002256,53.2163,130.7895,46.7135,313.4045,-2.4376e-05,-6.76e-06,0.0,0 STARLINK-4678,1 53780U 22111H   22358.76548845 -.00000676  00000-0 -24376-4 0  9994,2 53780  53.2163 130.7895 0002256  46.7135 313.4045 15.08844106 16115,6917.868,95.437,541.294,538.172,0.0
53780.0,STARLINK-4678,PAYLOAD,2022-12-25 08:40:46,15.08844374,0.0002382,53.2155,128.1133,47.7081,312.4113,-2.0343e-05,-6.12e-06,0.0,0 STARLINK-4678,1 53780U 22111H   22359.36164563 -.00000612  00000-0 -20343-4 0  9992,2 53780  53.2155 128.1133 0002382  47.7081 312.4113 15.08844374 17015,6917.8669999999975,95.437,541.38,538.0840000000002,0.0
53780.0,STARLINK-4678,PAYLOAD,2022-12-25 15:02:18,15.0884241,0.0002247,53.2171,126.9237,46.4794,313.6385,-4.6458e-05,-1.028e-05,0.0,0 STARLINK-4678,1 53780U 22111H   22359.62660786 -.00001028  00000-0 -46458-4 0  9996,2 53780  53.2171 126.9237 0002247  46.4794 313.6385 15.08842410 17058,6917.873000000001,95.437,541.2919999999998,538.184,0.0
53780.0,STARLINK-4678,PAYLOAD,2022-12-26 02:10:01,15.08831094,0.000228,53.2164,124.8423,46.6353,313.4829,-0.00011253,-2.078e-05,0.0,0 STARLINK-4678,1 53780U 22111H   22360.09029763 -.00002078  00000-0 -11253-3 0  9993,2 53780  53.2164 124.8423 0002280  46.6353 313.4829 15.08831094 16319,6917.908,95.438,541.35,538.195,0.0
53780.0,STARLINK-4678,PAYLOAD,2022-12-26 08:31:33,15.08838494,0.0002079,53.217,123.6555,25.2916,334.8177,-8.6111e-05,-1.658e-05,0.0,0 STARLINK-4678,1 53780U 22111H   22360.35524994 -.00001658  00000-0 -86111-4 0  9997,2 53780  53.2170 123.6555 0002079  25.2916 334.8177 15.08838494 17161,6917.885,95.438,541.188,538.312,0.0
53780.0,STARLINK-4678,PAYLOAD,2022-12-27 08:22:19,15.08845207,0.0002468,53.2177,119.1954,35.5442,324.5715,0.00011638,1.565e-05,0.0,0 STARLINK-4678,1 53780U 22111H   22361.34883817  .00001565  00000-0  11638-3 0  9995,2 53780  53.2177 119.1954 0002468  35.5442 324.5715 15.08845207 16502,6917.864000000001,95.437,541.437,538.0219999999998,0.0
53780.0,STARLINK-4678,PAYLOAD,2022-12-27 17:54:38,15.08846296,0.0002417,53.2169,117.4101,35.535,324.5802,8.994299999999999e-05,1.144e-05,0.0,0 STARLINK-4678,1 53780U 22111H   22361.74627671  .00001144  00000-0  89943-4 0  9991,2 53780  53.2169 117.4101 0002417  35.5350 324.5802 15.08846296 17372,6917.861,95.437,541.398,538.054,0.0
53780.0,STARLINK-4678,PAYLOAD,2022-12-28 14:34:40,15.08825076,0.0002077,53.217,113.5421,34.1519,325.9606,-0.00010533,-1.964e-05,0.0,0 STARLINK-4678,1 53780U 22111H   22362.60741435 -.00001964  00000-0 -10533-3 0  9992,2 53780  53.2170 113.5421 0002077  34.1519 325.9606 15.08825076 17505,6917.926,95.438,541.2280000000002,538.354,0.0
53780.0,STARLINK-4678,PAYLOAD,2022-12-29 08:03:55,15.08825151,0.0002173,53.2179,110.2723,36.0913,324.0225,-0.00020983,-3.625e-05,0.0,0 STARLINK-4678,1 53780U 22111H   22363.33606316 -.00003625  00000-0 -20983-3 0  9997,2 53780  53.2179 110.2723 0002173  36.0913 324.0225 15.08825151 17612,6917.926,95.438,541.294,538.288,0.0
53780.0,STARLINK-4678,PAYLOAD,2022-12-30 12:40:48,15.08871651,0.0002307,53.2173,104.9174,35.9698,324.1449,0.00047081,7.219e-05,0.0,0 STARLINK-4678,1 53780U 22111H   22364.52833674  .00007219  00000-0  47081-3 0  9997,2 53780  53.2173 104.9174 0002307  35.9698 324.1449 15.08871651 16987,6917.784000000002,95.436,541.245,538.053,0.0
53780.0,STARLINK-4678,PAYLOAD,2022-12-30 23:48:32,15.08836964,0.0002331,53.2181,102.8381,32.294000000000004,327.8194,0.00011893,1.605e-05,0.0,0 STARLINK-4678,1 53780U 22111H   22364.99204189  .00001605  00000-0  11893-3 0  9996,2 53780  53.2181 102.8381 0002331  32.2940 327.8194 15.08836964 17054,6917.89,95.438,541.367,538.1419999999998,0.0
53780.0,STARLINK-4678,PAYLOAD,2022-12-31 12:31:38,15.08828576,0.0002236,53.2171,100.4574,31.82,328.2927,4.3339e-05,4.01e-06,0.0,0 STARLINK-4678,1 53780U 22111H   22365.52197101  .00000401  00000-0  43339-4 0  9995,2 53780  53.2171 100.4574 0002236  31.8200 328.2927 15.08828576 17137,6917.915,95.438,541.327,538.2330000000002,0.0
53780.0,STARLINK-4678,PAYLOAD,2022-12-31 14:07:01,15.08825387,0.0002438,53.2198,100.1624,36.9269,323.189,2.4288e-05,9.8e-07,0.0,0 STARLINK-4678,1 53780U 22111H   22365.58821504  .00000098  00000-0  24288-4 0  9996,2 53780  53.2198 100.1624 0002438  36.9269 323.1890 15.08825387 17954,6917.925,95.438,541.477,538.1030000000002,0.0
53780.0,STARLINK-4678,PAYLOAD,2023-01-01 06:00:52,15.08842099,0.0002379,53.2178,97.1888,39.47,320.6465,-0.00010676,-1.987e-05,0.0,0 STARLINK-4678,1 53780U 22111H   23001.25061060 -.00001987  00000-0 -10676-3 0  9996,2 53780  53.2178  97.1888 0002379  39.4700 320.6465 15.08842099 17242,6917.874,95.437,541.385,538.0930000000002,0.0
53780.0,STARLINK-4678,PAYLOAD,2023-01-01 12:22:25,15.08839102,0.0002669,53.2188,95.9958,76.1778,283.9511,-0.00026632,-4.525e-05,0.0,0 STARLINK-4678,1 53780U 22111H   23001.51557843 -.00004525  00000-0 -26632-3 0  9994,2 53780  53.2188  95.9958 0002669  76.1778 283.9511 15.08839102 17280,6917.8830000000025,95.438,541.595,537.9019999999998,0.0
53780.0,STARLINK-4678,PAYLOAD,2023-01-01 13:57:49,15.08845627,0.0002218999999999,53.2193,95.6997,37.327,322.7876,-0.00043966,-7.28e-05,0.0,0 STARLINK-4678,1 53780U 22111H   23001.58182074 -.00007280  00000-0 -43966-3 0  9991,2 53780  53.2193  95.6997 0002219  37.3270 322.7876 15.08845627 18100,6917.863,95.437,541.263,538.193,0.0
53780.0,STARLINK-4678,PAYLOAD,2023-01-01 23:30:07,15.08850038,0.0002353,53.219,93.9166,37.2806,322.8349,-0.00041504,-6.890000000000001e-05,0.0,0 STARLINK-4678,1 53780U 22111H   23001.97925589 -.00006890  00000-0 -41504-3 0  9992,2 53780  53.2190  93.9166 0002353  37.2806 322.8349 15.08850038 17353,6917.85,95.437,541.342,538.087,0.0
53780.0,STARLINK-4678,PAYLOAD,2023-01-02 12:13:12,15.08831909,0.0002315,53.2198,91.5383,30.8455,329.2673,3.931e-05,3.37e-06,0.0,0 STARLINK-4678,1 53780U 22111H   23002.50917327  .00000337  00000-0  39310-4 0  9994,2 53780  53.2198  91.5383 0002315  30.8455 329.2673 15.08831909 18249,6917.905,95.438,541.372,538.169,0.0
53780.0,STARLINK-4678,PAYLOAD,2023-01-02 16:59:22,15.08826025,0.0002130999999999,53.2165,90.6463,36.1707,323.9429,3.6512e-05,2.93e-06,0.0,0 STARLINK-4678,1 53780U 22111H   23002.70789818  .00000293  00000-0  36512-4 0  9990,2 53780  53.2165  90.6463 0002131  36.1707 323.9429 15.08826025 17463,6917.9230000000025,95.438,541.262,538.314,0.0
53780.0,STARLINK-4678,PAYLOAD,2023-01-03 12:04:00,15.08832092,0.0002427,53.2171,87.0777,36.0097,324.1059,3.2805e-05,2.34e-06,0.0,0 STARLINK-4678,1 53780U 22111H   23003.50277981  .00000234  00000-0  32805-4 0  9998,2 53780  53.2171  87.0777 0002427  36.0097 324.1059 15.08832092 17583,6917.905,95.438,541.4490000000002,538.091,0.0
53780.0,STARLINK-4678,PAYLOAD,2023-01-04 11:54:47,15.08833658,0.0002384999999999,53.218,82.6182,29.5664,330.5463,7.162e-06,-1.74e-06,0.0,0 STARLINK-4678,1 53780U 22111H   23004.49638667 -.00000174  00000-0  71620-5 0  9992,2 53780  53.2180  82.6182 0002385  29.5664 330.5463 15.08833658 18540,6917.9,95.438,541.415,538.115,0.0
